[{"OBJECT_NAME":"STARLINK-3917","OBJECT_ID":"2022-051BE","EPOCH":"2026-03-09T12:33:35.622144","MEAN_MOTION":15.08839707,"ECCENTRICITY":0.00013509,"INCLINATION":53.2164,"RA_OF_ASC_NODE":119.8689,"ARG_OF_PERICENTER":94.3359,"MEAN_ANOMALY":265.7788,"EPHEMERIS_TYPE":0,"CLASSIFICATION_TYPE":"U","NORAD_CAT_ID":52588,"ELEMENT_SET_NO":999,"REV_AT_EPOCH":21156,"BSTAR":8.421994e-6,"MEAN_MOTION_DOT":-1.54e-6,"MEAN_MOTION_DDOT":0},{"OBJECT_NAME":"OBJECT E","OBJECT_ID":"2025-013E","EPOCH":"2026-03-09T23:59:52.369152","MEAN_MOTION":15.10347623,"ECCENTRICITY":0.00085591,"INCLINATION":97.6477,"RA_OF_ASC_NODE":238.3736,"ARG_OF_PERICENTER":6.9171,"MEAN_ANOMALY":353.2174,"EPHEMERIS_TYPE":0,"CLASSIFICATION_TYPE":"U","NORAD_CAT_ID":62733,"ELEMENT_SET_NO":999,"REV_AT_EPOCH":6224,"BSTAR":0.00032920786,"MEAN_MOTION_DOT":5.34e-5,"MEAN_MOTION_DDOT":0}]
